[{"OBJECT_NAME":"STARLINK-36476","OBJECT_ID":"2026-002K","EPOCH":"2026-03-09T23:39:28.575360","MEAN_MOTION":15.27616726,"ECCENTRICITY":0.00017907,"INCLINATION":43.0011,"RA_OF_ASC_NODE":323.6393,"ARG_OF_PERICENTER":269.748,"MEAN_ANOMALY":90.3166,"EPHEMERIS_TYPE":0,"CLASSIFICATION_TYPE":"U","NORAD_CAT_ID":67314,"ELEMENT_SET_NO":999,"REV_AT_EPOCH":1111,"BSTAR":0.0010409328,"MEAN_MOTION_DOT":0.00028525,"MEAN_MOTION_DDOT":0},{"OBJECT_NAME":"ELECTRON KICK STAGE R\/B","OBJECT_ID":"2022-147B","EPOCH":"2026-03-09T22:28:20.187264","MEAN_MOTION":15.28920172,"ECCENTRICITY":0.00095089,"INCLINATION":97.642,"RA_OF_ASC_NODE":85.1135,"ARG_OF_PERICENTER":110.4683,"MEAN_ANOMALY":249.7578,"EPHEMERIS_TYPE":0,"CLASSIFICATION_TYPE":"U","NORAD_CAT_ID":54228,"ELEMENT_SET_NO":999,"REV_AT_EPOCH":18390,"BSTAR":0.00083201931,"MEAN_MOTION_DOT":0.00023374,"MEAN_MOTION_DDOT":0}]
